ONEWEB-0207             
1 48242U 21031AJ  26195.80893610 -.00000149  00000+0 -43562-3 0  9993
2 48242  87.8974 284.1969 0002035  92.2125 267.9238 13.14501652251929
ONEWEB-0208             
1 48243U 21031AK  26195.79071538  .00000050  00000+0  99847-4 0  9996
2 48243  87.8972 284.2062 0002368 102.7594 257.3801 13.14502063251936
ONEWEB-0200             
1 48244U 21031AL  26195.75424817 -.00000037  00000+0 -13434-3 0  9999
2 48244  87.8980 284.2026 0002120  98.6608 261.4762 13.14502365251859
ONEWEB-0217             
1 48245U 21031AM  26195.77010319  .00000232  00000+0  59146-3 0  9995
2 48245  87.8977 284.2035 0002399 103.0708 257.0689 13.14502504251805
ONEWEB-0211             
1 48767U 21045A   26195.71013980  .00000043  00000+0  80225-4 0  9993
2 48767  87.8990 253.5926 0002663 106.3852 253.7572 13.16197991248067
ONEWEB-0223             
1 48768U 21045B   26195.64996631 -.00000164  00000+0 -47094-3 0  9991
2 48768  87.8993 253.7206 0002318 107.0577 253.0808 13.15547966248013
ONEWEB-0230             
1 48769U 21045C   26195.69750510  .00000139  00000+0  33507-3 0  9995
2 48769  87.8986 253.7220 0001923  97.4659 262.6690 13.15548019248280
ONEWEB-0237             
1 48770U 21045D   26195.68640937  .00000161  00000+0  39240-3 0  9992
2 48770  87.8980 253.7264 0002395  97.5713 262.5690 13.15548093248001
ONEWEB-0235             
1 48771U 21045E   26195.66104177 -.00000041  00000+0 -14386-3 0  9995
2 48771  87.8993 253.7196 0002245 108.9465 251.1909 13.15550020247992
ONEWEB-0242             
1 48772U 21045F   26195.65471998 -.00000170  00000+0 -48484-3 0  9992
2 48772  87.8996 253.7179 0001957 102.7259 257.4090 13.15548604248030
ONEWEB-0241             
1 48773U 21045G   26195.71809893 -.00000125  00000+0 -36597-3 0  9991
2 48773  87.8986 253.7204 0002386 105.3687 254.7707 13.15537921247955
ONEWEB-0243             
1 48774U 21045H   26195.67372299  .00000073  00000+0  16014-3 0  9994
2 48774  87.8981 253.7420 0001850 112.7369 247.3958 13.15550323247974
ONEWEB-0222             
1 48775U 21045J   26195.65708993 -.00000080  00000+0 -24675-3 0  9999
2 48775  87.8992 253.7146 0002255 102.8575 257.2807 13.15546996248011
ONEWEB-0244             
1 48776U 21045K   26195.68324405  .00000126  00000+0  30050-3 0  9998
2 48776  87.8996 253.7061 0002070 102.2017 257.9346 13.15548018248586
ONEWEB-0247             
1 48777U 21045L   26195.68005855  .00001278  00000+0  33600-2 0  9996
2 48777  87.8985 253.7347 0002110 119.5205 240.6136 13.15558456248029
ONEWEB-0245             
1 48778U 21045M   26195.67530824  .00000131  00000+0  31509-3 0  9999
2 48778  87.8991 253.7180 0002261 101.3543 258.7842 13.15548602247994
